{
  "type": "FeatureCollection",
  "name": "Bavio2026new1",
  "crs": {
    "type": "name",
    "properties": {
      "name": "urn:ogc:def:crs:OGC:1.3:CRS84"
    }
  },
  "features": [
    {
      "type": "Feature",
      "properties": {
        "id": null
      },
      "geometry": {
        "type": "Point",
        "coordinates": [
          -57.7562828495257,
          -35.09403240896269
        ]
      }
    },
    {
      "type": "Feature",
      "properties": {
        "id": null
      },
      "geometry": {
        "type": "Point",
        "coordinates": [
          -57.75259734584024,
          -35.09526091019117
        ]
      }
    },
    {
      "type": "Feature",
      "properties": {
        "id": null
      },
      "geometry": {
        "type": "Point",
        "coordinates": [
          -57.75537284861571,
          -35.09749041242064
        ]
      }
    },
    {
      "type": "Feature",
      "properties": {
        "id": null
      },
      "geometry": {
        "type": "Point",
        "coordinates": [
          -57.75787535111817,
          -35.09553391046417
        ]
      }
    },
    {
      "type": "Feature",
      "properties": {
        "id": null
      },
      "geometry": {
        "type": "Point",
        "coordinates": [
          -57.761378854621626,
          -35.10167641660658
        ]
      }
    },
    {
      "type": "Feature",
      "properties": {
        "id": null
      },
      "geometry": {
        "type": "Point",
        "coordinates": [
          -57.761560854803626,
          -35.09871891364912
        ]
      }
    },
    {
      "type": "Feature",
      "properties": {
        "id": null
      },
      "geometry": {
        "type": "Point",
        "coordinates": [
          -57.76419985744259,
          -35.10099391592409
        ]
      }
    },
    {
      "type": "Feature",
      "properties": {
        "id": null
      },
      "geometry": {
        "type": "Point",
        "coordinates": [
          -57.768158361401035,
          -35.10695442188451
        ]
      }
    },
    {
      "type": "Feature",
      "properties": {
        "id": null
      },
      "geometry": {
        "type": "Point",
        "coordinates": [
          -57.776302869545425,
          -35.11086742579746
        ]
      }
    },
    {
      "type": "Feature",
      "properties": {
        "id": null
      },
      "geometry": {
        "type": "Point",
        "coordinates": [
          -57.775529368771934,
          -35.114734929664905
        ]
      }
    },
    {
      "type": "Feature",
      "properties": {
        "id": null
      },
      "geometry": {
        "type": "Point",
        "coordinates": [
          -57.781444374686856,
          -35.1152809302109
        ]
      }
    },
    {
      "type": "Feature",
      "properties": {
        "id": null
      },
      "geometry": {
        "type": "Point",
        "coordinates": [
          -57.77971537295788,
          -35.117009931939876
        ]
      }
    },
    {
      "type": "Feature",
      "properties": {
        "id": null
      },
      "geometry": {
        "type": "Point",
        "coordinates": [
          -57.78644937969179,
          -35.11933043426034
        ]
      }
    },
    {
      "type": "Feature",
      "properties": {
        "id": null
      },
      "geometry": {
        "type": "Point",
        "coordinates": [
          -57.78421987746232,
          -35.12128693621682
        ]
      }
    },
    {
      "type": "Feature",
      "properties": {
        "id": null
      },
      "geometry": {
        "type": "Point",
        "coordinates": [
          -57.79304688628921,
          -35.12374393867378
        ]
      }
    },
    {
      "type": "Feature",
      "properties": {
        "id": null
      },
      "geometry": {
        "type": "Point",
        "coordinates": [
          -57.78931588255826,
          -35.12501793994777
        ]
      }
    },
    {
      "type": "Feature",
      "properties": {
        "id": null
      },
      "geometry": {
        "type": "Point",
        "coordinates": [
          -57.796550389792664,
          -35.12701994194974
        ]
      }
    },
    {
      "type": "Feature",
      "properties": {
        "id": null
      },
      "geometry": {
        "type": "Point",
        "coordinates": [
          -57.800053893296116,
          -35.1301594450892
        ]
      }
    },
    {
      "type": "Feature",
      "properties": {
        "id": null
      },
      "geometry": {
        "type": "Point",
        "coordinates": [
          -57.80510439834654,
          -35.13452744945714
        ]
      }
    },
    {
      "type": "Feature",
      "properties": {
        "id": null
      },
      "geometry": {
        "type": "Point",
        "coordinates": [
          -57.81051890376097,
          -35.13891820384783
        ]
      }
    },
    {
      "type": "Feature",
      "properties": {
        "id": null
      },
      "geometry": {
        "type": "Point",
        "coordinates": [
          -57.81156540480746,
          -35.14055620548581
        ]
      }
    },
    {
      "type": "Feature",
      "properties": {
        "id": null
      },
      "geometry": {
        "type": "Point",
        "coordinates": [
          -57.75009484333778,
          -35.09300865793894
        ]
      }
    },
    {
      "type": "Feature",
      "properties": {
        "id": null
      },
      "geometry": {
        "type": "Point",
        "coordinates": [
          -57.74756959081256,
          -35.090255905186226
        ]
      }
    },
    {
      "type": "Feature",
      "properties": {
        "id": null
      },
      "geometry": {
        "type": "Point",
        "coordinates": [
          -57.759558852801646,
          -35.08070089563134
        ]
      }
    },
    {
      "type": "Feature",
      "properties": {
        "id": null
      },
      "geometry": {
        "type": "Point",
        "coordinates": [
          -57.76410885735159,
          -35.08252089745132
        ]
      }
    },
    {
      "type": "Feature",
      "properties": {
        "id": null
      },
      "geometry": {
        "type": "Point",
        "coordinates": [
          -57.76638385962656,
          -35.07983639476685
        ]
      }
    },
    {
      "type": "Feature",
      "properties": {
        "id": null
      },
      "geometry": {
        "type": "Point",
        "coordinates": [
          -57.76356285680559,
          -35.07683339176389
        ]
      }
    },
    {
      "type": "Feature",
      "properties": {
        "id": null
      },
      "geometry": {
        "type": "Point",
        "coordinates": [
          -57.76702086026354,
          -35.074194389124926
        ]
      }
    },
    {
      "type": "Feature",
      "properties": {
        "id": null
      },
      "geometry": {
        "type": "Point",
        "coordinates": [
          -57.77407336731595,
          -35.07378488871544
        ]
      }
    },
    {
      "type": "Feature",
      "properties": {
        "id": null
      },
      "geometry": {
        "type": "Point",
        "coordinates": [
          -57.72295406619739,
          -35.09250815743843
        ]
      }
    },
    {
      "type": "Feature",
      "properties": {
        "id": null
      },
      "geometry": {
        "type": "Point",
        "coordinates": [
          -57.720497063740424,
          -35.0943281592584
        ]
      }
    },
    {
      "type": "Feature",
      "properties": {
        "id": null
      },
      "geometry": {
        "type": "Point",
        "coordinates": [
          -57.720770064013415,
          -35.09751316244336
        ]
      }
    },
    {
      "type": "Feature",
      "properties": {
        "id": null
      },
      "geometry": {
        "type": "Point",
        "coordinates": [
          -57.71817656141995,
          -35.09906016399034
        ]
      }
    },
    {
      "type": "Feature",
      "properties": {
        "id": null
      },
      "geometry": {
        "type": "Point",
        "coordinates": [
          -57.71703906028247,
          -35.100243165173325
        ]
      }
    },
    {
      "type": "Feature",
      "properties": {
        "id": null
      },
      "geometry": {
        "type": "Point",
        "coordinates": [
          -57.71531005855349,
          -35.1016991666293
        ]
      }
    },
    {
      "type": "Feature",
      "properties": {
        "id": null
      },
      "geometry": {
        "type": "Point",
        "coordinates": [
          -57.71330805655152,
          -35.100106665036826
        ]
      }
    },
    {
      "type": "Feature",
      "properties": {
        "id": null
      },
      "geometry": {
        "type": "Point",
        "coordinates": [
          -57.71389955714301,
          -35.10283666776679
        ]
      }
    },
    {
      "type": "Feature",
      "properties": {
        "id": null
      },
      "geometry": {
        "type": "Point",
        "coordinates": [
          -57.70898555222908,
          -35.10301866794879
        ]
      }
    },
    {
      "type": "Feature",
      "properties": {
        "id": null
      },
      "geometry": {
        "type": "Point",
        "coordinates": [
          -57.7070290502726,
          -35.10511167004176
        ]
      }
    },
    {
      "type": "Feature",
      "properties": {
        "id": null
      },
      "geometry": {
        "type": "Point",
        "coordinates": [
          -57.709486052729574,
          -35.10674967167974
        ]
      }
    },
    {
      "type": "Feature",
      "properties": {
        "id": null
      },
      "geometry": {
        "type": "Point",
        "coordinates": [
          -57.748251588648934,
          -35.0896175915403
        ]
      }
    },
    {
      "type": "Feature",
      "properties": {
        "id": null
      },
      "geometry": {
        "type": "Point",
        "coordinates": [
          -57.751114137790466,
          -35.0920086907775
        ]
      }
    },
    {
      "type": "Feature",
      "properties": {
        "id": null
      },
      "geometry": {
        "type": "Point",
        "coordinates": [
          -57.75362268502149,
          -35.094334720756756
        ]
      }
    },
    {
      "type": "Feature",
      "properties": {
        "id": null
      },
      "geometry": {
        "type": "Point",
        "coordinates": [
          -57.75538143521405,
          -35.09479475257065
        ]
      }
    },
    {
      "type": "Feature",
      "properties": {
        "id": null
      },
      "geometry": {
        "type": "Point",
        "coordinates": [
          -57.756741718566104,
          -35.09587850850032
        ]
      }
    },
    {
      "type": "Feature",
      "properties": {
        "id": null
      },
      "geometry": {
        "type": "Point",
        "coordinates": [
          -57.756411952905005,
          -35.096572789642764
        ]
      }
    },
    {
      "type": "Feature",
      "properties": {
        "id": null
      },
      "geometry": {
        "type": "Point",
        "coordinates": [
          -57.76085966725915,
          -35.09946845001734
        ]
      }
    },
    {
      "type": "Feature",
      "properties": {
        "id": null
      },
      "geometry": {
        "type": "Point",
        "coordinates": [
          -57.762197851731834,
          -35.10107724430148
        ]
      }
    },
    {
      "type": "Feature",
      "properties": {
        "id": null
      },
      "geometry": {
        "type": "Point",
        "coordinates": [
          -57.76354324982835,
          -35.10153586497484
        ]
      }
    },
    {
      "type": "Feature",
      "properties": {
        "id": null
      },
      "geometry": {
        "type": "Point",
        "coordinates": [
          -57.76865290004599,
          -35.106463097337375
        ]
      }
    },
    {
      "type": "Feature",
      "properties": {
        "id": null
      },
      "geometry": {
        "type": "Point",
        "coordinates": [
          -57.77542282876571,
          -35.11157848177103
        ]
      }
    },
    {
      "type": "Feature",
      "properties": {
        "id": null
      },
      "geometry": {
        "type": "Point",
        "coordinates": [
          -57.777040169030684,
          -35.113389445455596
        ]
      }
    },
    {
      "type": "Feature",
      "properties": {
        "id": null
      },
      "geometry": {
        "type": "Point",
        "coordinates": [
          -57.78051816623764,
          -35.116305802558
        ]
      }
    },
    {
      "type": "Feature",
      "properties": {
        "id": null
      },
      "geometry": {
        "type": "Point",
        "coordinates": [
          -57.78083304664321,
          -35.11596477692909
        ]
      }
    },
    {
      "type": "Feature",
      "properties": {
        "id": null
      },
      "geometry": {
        "type": "Point",
        "coordinates": [
          -57.785298623304,
          -35.12039811010493
        ]
      }
    },
    {
      "type": "Feature",
      "properties": {
        "id": null
      },
      "geometry": {
        "type": "Point",
        "coordinates": [
          -57.785785256658066,
          -35.12013940100713
        ]
      }
    },
    {
      "type": "Feature",
      "properties": {
        "id": null
      },
      "geometry": {
        "type": "Point",
        "coordinates": [
          -57.790064767624656,
          -35.1243728226074
        ]
      }
    },
    {
      "type": "Feature",
      "properties": {
        "id": null
      },
      "geometry": {
        "type": "Point",
        "coordinates": [
          -57.79165348239821,
          -35.124878481298545
        ]
      }
    },
    {
      "type": "Feature",
      "properties": {
        "id": null
      },
      "geometry": {
        "type": "Point",
        "coordinates": [
          -57.79524598157083,
          -35.1280417879943
        ]
      }
    },
    {
      "type": "Feature",
      "properties": {
        "id": null
      },
      "geometry": {
        "type": "Point",
        "coordinates": [
          -57.798938669963405,
          -35.131016942618935
        ]
      }
    },
    {
      "type": "Feature",
      "properties": {
        "id": null
      },
      "geometry": {
        "type": "Point",
        "coordinates": [
          -57.80406263292675,
          -35.135367959263654
        ]
      }
    },
    {
      "type": "Feature",
      "properties": {
        "id": null
      },
      "geometry": {
        "type": "Point",
        "coordinates": [
          -57.80955872727849,
          -35.13981305194393
        ]
      }
    },
    {
      "type": "Feature",
      "properties": {
        "id": null
      },
      "geometry": {
        "type": "Point",
        "coordinates": [
          -57.81099000184926,
          -35.14093020486622
        ]
      }
    }
  ]
}